{"type": "FeatureCollection", "features": [ {"type": "Feature", "properties": {"norad_id": 66797, "name": "STARLINK-36099", "group": "last-30-days", "lat": -36.68548715766098, "lon": 89.07348840840845, "alt_km": 360.0441070032575, "timestamp": "2025-12-18T15:47:09.960073+00:00", "meta": {"OBJECT_NAME": "STARLINK-36099", "OBJECT_ID": "2025-278G", "EPOCH": "2025-12-18T06:00:02.999808", "MEAN_MOTION": 15.72024715, "ECCENTRICITY": 0.00016613, "INCLINATION": 42.9991, "RA_OF_ASC_NODE": 218.4507, "ARG_OF_PERICENTER": 277.7944, "MEAN_ANOMALY": 174.4521, "EPHEMERIS_TYPE": 0, "CLASSIFICATION_TYPE": "U", "NORAD_CAT_ID": 66797, "ELEMENT_SET_NO": 999, "REV_AT_EPOCH": 390, "BSTAR": -0.016394749, "MEAN_MOTION_DOT": -0.01957486, "MEAN_MOTION_DDOT": 0}, "tle": {"line1": "1 66797U 25278G   25352.25003472 -.01957486  00000+0 -16395-1 0  9995", "line2": "2 66797  42.9991 218.4507 0001661 277.7944 174.4521 15.72024715  3902"}}, "geometry": {"type": "Point", "coordinates": [89.07348840840845, -36.68548715766098]}}, {"type": "Feature", "properties": {"norad_id": 66798, "name": "STARLINK-36041", "group": "last-30-days", "lat": -37.451182372917266, "lon": 91.27339321139901, "alt_km": 360.0638518577334, "timestamp": "2025-12-18T15:47:09.960084+00:00", "meta": {"OBJECT_NAME": "STARLINK-36041", "OBJECT_ID": "2025-278H", "EPOCH": "2025-12-18T06:00:02.999808", "MEAN_MOTION": 15.72021331, "ECCENTRICITY": 0.00014844, "INCLINATION": 42.9992, "RA_OF_ASC_NODE": 218.445, "ARG_OF_PERICENTER": 271.9592, "MEAN_ANOMALY": 182.2072, "EPHEMERIS_TYPE": 0, "CLASSIFICATION_TYPE": "U", "NORAD_CAT_ID": 66798, "ELEMENT_SET_NO": 999, "REV_AT_EPOCH": 368, "BSTAR": -0.016361437, "MEAN_MOTION_DOT": -0.01953574, "MEAN_MOTION_DDOT": 0}, "tle": {"line1": "1 66798U 25278H   25352.25003472 -.01953574  00000+0 -16361-1 0  9993", "line2": "2 66798  42.9992 218.4450 0001484 271.9592 182.2072 15.72021331  3683"}}, "geometry": {"type": "Point", "coordinates": [91.27339321139901, -37.451182372917266]}}, {"type": "Feature", "properties": {"norad_id": 66799, "name": "STARLINK-36044", "group": "last-30-days", "lat": -38.171657114352605, "lon": 93.50883757227119, "alt_km": 360.0414898280269, "timestamp": "2025-12-18T15:47:09.960094+00:00", "meta": {"OBJECT_NAME": "STARLINK-36044", "OBJECT_ID": "2025-278J", "EPOCH": "2025-12-18T06:00:02.999808", "MEAN_MOTION": 15.7202135, "ECCENTRICITY": 0.00016668, "INCLINATION": 42.9992, "RA_OF_ASC_NODE": 218.4412, "ARG_OF_PERICENTER": 277.1797, "MEAN_ANOMALY": 178.9011, "EPHEMERIS_TYPE": 0, "CLASSIFICATION_TYPE": "U", "NORAD_CAT_ID": 66799, "ELEMENT_SET_NO": 999, "REV_AT_EPOCH": 384, "BSTAR": -0.016346665, "MEAN_MOTION_DOT": -0.01952163, "MEAN_MOTION_DDOT": 0}, "tle": {"line1": "1 66799U 25278J   25352.25003472 -.01952163  00000+0 -16347-1 0  9991", "line2": "2 66799  42.9992 218.4412 0001666 277.1797 178.9011 15.72021350  3843"}}, "geometry": {"type": "Point", "coordinates": [93.50883757227119, -38.171657114352605]}}, {"type": "Feature", "properties": {"norad_id": 66800, "name": "STARLINK-35996", "group": "last-30-days", "lat": -39.48377021086203, "lon": 98.12023991945573, "alt_km": 360.0499039499655, "timestamp": "2025-12-18T15:47:09.960105+00:00", "meta": {"OBJECT_NAME": "STARLINK-35996", "OBJECT_ID": "2025-278K", "EPOCH": "2025-12-18T06:00:02.999808", "MEAN_MOTION": 15.72023701, "ECCENTRICITY": 0.00016412, "INCLINATION": 42.9988, "RA_OF_ASC_NODE": 218.4315, "ARG_OF_PERICENTER": 275.8935, "MEAN_ANOMALY": 184.0212, "EPHEMERIS_TYPE": 0, "CLASSIFICATION_TYPE": "U", "NORAD_CAT_ID": 66800, "ELEMENT_SET_NO": 999, "REV_AT_EPOCH": 363, "BSTAR": -0.016381275, "MEAN_MOTION_DOT": -0.01955973, "MEAN_MOTION_DDOT": 0}, "tle": {"line1": "1 66800U 25278K   25352.25003472 -.01955973  00000+0 -16381-1 0  9994", "line2": "2 66800  42.9988 218.4315 0001641 275.8935 184.0212 15.72023701  3635"}}, "geometry": {"type": "Point", "coordinates": [98.12023991945573, -39.48377021086203]}}, {"type": "Feature", "properties": {"norad_id": 66801, "name": "STARLINK-36080", "group": "last-30-days", "lat": -41.90479010567672, "lon": 110.32573306848504, "alt_km": 360.0355300049214, "timestamp": "2025-12-18T15:47:09.960116+00:00", "meta": {"OBJECT_NAME": "STARLINK-36080", "OBJECT_ID": "2025-278L", "EPOCH": "2025-12-18T06:00:02.999808", "MEAN_MOTION": 15.7202076, "ECCENTRICITY": 0.00016416, "INCLINATION": 42.9992, "RA_OF_ASC_NODE": 218.4052, "ARG_OF_PERICENTER": 273.163, "MEAN_ANOMALY": 196.3399, "EPHEMERIS_TYPE": 0, "CLASSIFICATION_TYPE": "U", "NORAD_CAT_ID": 66801, "ELEMENT_SET_NO": 999, "REV_AT_EPOCH": 384, "BSTAR": -0.01636227, "MEAN_MOTION_DOT": -0.01953747, "MEAN_MOTION_DDOT": 0}, "tle": {"line1": "1 66801U 25278L   25352.25003472 -.01953747  00000+0 -16362-1 0  9991", "line2": "2 66801  42.9992 218.4052 0001641 273.1630 196.3399 15.72020760  3849"}}, "geometry": {"type": "Point", "coordinates": [110.32573306848504, -41.90479010567672]}}, {"type": "Feature", "properties": {"norad_id": 66802, "name": "STARLINK-35604", "group": "last-30-days", "lat": -38.85152761418436, "lon": 95.79564819559822, "alt_km": 360.1942685272161, "timestamp": "2025-12-18T15:47:09.960128+00:00", "meta": {"OBJECT_NAME": "STARLINK-35604", "OBJECT_ID": "2025-278M", "EPOCH": "2025-12-18T06:00:02.999808", "MEAN_MOTION": 15.72018372, "ECCENTRICITY": 0.00014547, "INCLINATION": 42.9991, "RA_OF_ASC_NODE": 218.4354, "ARG_OF_PERICENTER": 278.2642, "MEAN_ANOMALY": 179.741, "EPHEMERIS_TYPE": 0, "CLASSIFICATION_TYPE": "U", "NORAD_CAT_ID": 66802, "ELEMENT_SET_NO": 999, "REV_AT_EPOCH": 384, "BSTAR": -0.016357496, "MEAN_MOTION_DOT": -0.01952915, "MEAN_MOTION_DDOT": 0}, "tle": {"line1": "1 66802U 25278M   25352.25003472 -.01952915  00000+0 -16357-1 0  9992", "line2": "2 66802  42.9991 218.4354 0001454 278.2642 179.7410 15.72018372  3840"}}, "geometry": {"type": "Point", "coordinates": [95.79564819559822, -38.85152761418436]}}, {"type": "Feature", "properties": {"norad_id": 66803, "name": "STARLINK-35565", "group": "last-30-days", "lat": -40.07101350486666, "lon": 100.49106436235141, "alt_km": 360.11301603403535, "timestamp": "2025-12-18T15:47:09.960140+00:00", "meta": {"OBJECT_NAME": "STARLINK-35565", "OBJECT_ID": "2025-278N", "EPOCH": "2025-12-18T06:00:02.999808", "MEAN_MOTION": 15.72019067, "ECCENTRICITY": 0.00014525, "INCLINATION": 42.9991, "RA_OF_ASC_NODE": 218.4255, "ARG_OF_PERICENTER": 270.6202, "MEAN_ANOMALY": 191.2149, "EPHEMERIS_TYPE": 0, "CLASSIFICATION_TYPE": "U", "NORAD_CAT_ID": 66803, "ELEMENT_SET_NO": 999, "REV_AT_EPOCH": 393, "BSTAR": -0.016332112, "MEAN_MOTION_DOT": -0.01950284, "MEAN_MOTION_DDOT": 0}, "tle": {"line1": "1 66803U 25278N   25352.25003472 -.01950284  00000+0 -16332-1 0  9993", "line2": "2 66803  42.9991 218.4255 0001452 270.6202 191.2149 15.72019067  3937"}}, "geometry": {"type": "Point", "coordinates": [100.49106436235141, -40.07101350486666]}}, {"type": "Feature", "properties": {"norad_id": 66804, "name": "STARLINK-36038", "group": "last-30-days", "lat": -40.60648622896363, "lon": 102.89341236687353, "alt_km": 360.0913542428025, "timestamp": "2025-12-18T15:47:09.960150+00:00", "meta": {"OBJECT_NAME": "STARLINK-36038", "OBJECT_ID": "2025-278P", "EPOCH": "2025-12-18T06:00:02.999808", "MEAN_MOTION": 15.72020789, "ECCENTRICITY": 0.00016103, "INCLINATION": 42.9991, "RA_OF_ASC_NODE": 218.4214, "ARG_OF_PERICENTER": 277.298, "MEAN_ANOMALY": 186.4528, "EPHEMERIS_TYPE": 0, "CLASSIFICATION_TYPE": "U", "NORAD_CAT_ID": 66804, "ELEMENT_SET_NO": 999, "REV_AT_EPOCH": 384, "BSTAR": -0.0163507, "MEAN_MOTION_DOT": -0.01952502, "MEAN_MOTION_DDOT": 0}, "tle": {"line1": "1 66804U 25278P   25352.25003472 -.01952502  00000+0 -16351-1 0  9990", "line2": "2 66804  42.9991 218.4214 0001610 277.2980 186.4528 15.72020789  3845"}}, "geometry": {"type": "Point", "coordinates": [102.89341236687353, -40.60648622896363]}}, {"type": "Feature", "properties": {"norad_id": 66805, "name": "STARLINK-36049", "group": "last-30-days", "lat": -41.52572423860521, "lon": 107.81786004951316, "alt_km": 360.1546795531167, "timestamp": "2025-12-18T15:47:09.960162+00:00", "meta": {"OBJECT_NAME": "STARLINK-36049", "OBJECT_ID": "2025-278Q", "EPOCH": "2025-12-18T06:00:02.999808", "MEAN_MOTION": 15.72019596, "ECCENTRICITY": 0.00014882, "INCLINATION": 42.999, "RA_OF_ASC_NODE": 218.4111, "ARG_OF_PERICENTER": 275.2873, "MEAN_ANOMALY": 192.3009, "EPHEMERIS_TYPE": 0, "CLASSIFICATION_TYPE": "U", "NORAD_CAT_ID": 66805, "ELEMENT_SET_NO": 999, "REV_AT_EPOCH": 384, "BSTAR": -0.016361918, "MEAN_MOTION_DOT": -0.01953499, "MEAN_MOTION_DDOT": 0}, "tle": {"line1": "1 66805U 25278Q   25352.25003472 -.01953499  00000+0 -16362-1 0  9999", "line2": "2 66805  42.9990 218.4111 0001488 275.2873 192.3009 15.72019596  3847"}}, "geometry": {"type": "Point", "coordinates": [107.81786004951316, -41.52572423860521]}}, {"type": "Feature", "properties": {"norad_id": 66806, "name": "STARLINK-36069", "group": "last-30-days", "lat": -41.092587779718905, "lon": 105.33925553005298, "alt_km": 360.18507943678105, "timestamp": "2025-12-18T15:47:09.960172+00:00", "meta": {"OBJECT_NAME": "STARLINK-36069", "OBJECT_ID": "2025-278R", "EPOCH": "2025-12-18T06:00:02.999808", "MEAN_MOTION": 15.72019031, "ECCENTRICITY": 0.00014618, "INCLINATION": 42.999, "RA_OF_ASC_NODE": 218.416, "ARG_OF_PERICENTER": 276.9313, "MEAN_ANOMALY": 188.7401, "EPHEMERIS_TYPE": 0, "CLASSIFICATION_TYPE": "U", "NORAD_CAT_ID": 66806, "ELEMENT_SET_NO": 999, "REV_AT_EPOCH": 363, "BSTAR": -0.016352002, "MEAN_MOTION_DOT": -0.01952389, "MEAN_MOTION_DDOT": 0}, "tle": {"line1": "1 66806U 25278R   25352.25003472 -.01952389  00000+0 -16352-1 0  9996", "line2": "2 66806  42.9990 218.4160 0001461 276.9313 188.7401 15.72019031  3636"}}, "geometry": {"type": "Point", "coordinates": [105.33925553005298, -41.092587779718905]}}]}